TIANZHOU-9              
1 64786U 25149A   25207.25045688  .00009349  00000+0  16713-2 0  9990
2 64786  98.7683 221.1460 0025696 234.0556 125.8262 14.66919279  1802
CZ-7 R/B                
1 64787U 25149B   25208.95530669  .02920100  79646-5  33848-3 0  9993
2 64787  41.4600 126.8411 0041858 273.5985 141.3315 16.32560652  2115
STARLINK-34629          
1 64790U 25150A   25208.91668981 -.01022792  00000+0 -58078-2 0  9998
2 64790  69.9951   7.1352 0003887 271.4517   6.7054 15.81326397  3097
STARLINK-34697          
1 64791U 25150B   25208.91668981 -.01027565  00000+0 -58321-2 0  9993
2 64791  69.9945   7.1336 0003945 275.2769   4.7114 15.81348108  3098
STARLINK-34632          
1 64792U 25150C   25208.91668981 -.01029755  00000+0 -58461-2 0  9992
2 64792  69.9947   7.1301 0003955 275.8431   6.4092 15.81347829  3099
STARLINK-34693          
1 64793U 25150D   25209.16668981 -.01066943  00000+0 -62474-2 0  9990
2 64793  69.9948   6.4122 0003798 272.1152 354.9790 15.80781843  2237
STARLINK-34666          
1 64794U 25150E   25209.16668981 -.01076112  00000+0 -63072-2 0  9995
2 64794  69.9946   6.4100 0003818 270.0089 359.3060 15.80784749  2238
STARLINK-34567          
1 64795U 25150F   25208.91668981 -.01048331  00000+0 -59625-2 0  9999
2 64795  69.9946   7.1224 0003877 271.2978  17.7400 15.81357582  3099
STARLINK-34646          
1 64796U 25150G   25208.91668981 -.01055733  00000+0 -60106-2 0  9990
2 64796  69.9946   7.1190 0003954 276.2176  15.2438 15.81354150  3095
STARLINK-34641          
1 64797U 25150H   25208.91668981 -.01060879  00000+0 -60423-2 0  9990
2 64797  69.9945   7.1161 0003956 276.0020  17.6487 15.81358954  3031
STARLINK-34649          
1 64798U 25150J   25208.91668981 -.01069177  00000+0 -60973-2 0  9991
2 64798  69.9944   7.1131 0003925 276.7295  19.3952 15.81353750  3096
STARLINK-34662          
1 64799U 25150K   25208.91668981 -.01071088  00000+0 -61053-2 0  9996
2 64799  69.9944   7.1110 0003999 276.6707  21.4059 15.81367772  3093
STARLINK-34660          
1 64800U 25150L   25208.91668981 -.01078568  00000+0 -61502-2 0  9998
2 64800  69.9945   7.1085 0004020 275.1393  25.0149 15.81379028  3096
STARLINK-34604          
1 64801U 25150M   25208.91668981 -.01111070  00000+0 -62365-2 0  9993
2 64801  69.9942   7.1052 0003981 274.9805  27.6494 15.81373731  3094
STARLINK-34658          
1 64802U 25150N   25208.91668981 -.01124192  00000+0 -63174-2 0  9992
2 64802  69.9942   7.1025 0003963 271.8488  33.0449 15.81377537  3097
STARLINK-34620          
1 64803U 25150P   25209.16668981 -.01182134  00000+0 -68717-2 0  9999
2 64803  69.9945   6.3856 0003798 266.8315  22.6891 15.80777090  2230
STARLINK-34633          
1 64804U 25150Q   25209.25002315 -.01119323  00000+0 -65449-2 0  9992
2 64804  69.9939   6.1440 0003945 269.8388 136.1325 15.80510666  2257
STARLINK-34624          
1 64805U 25150R   25209.25002315 -.01135949  00000+0 -66632-2 0  9990
2 64805  69.9938   6.1357 0003891 271.8319 140.9671 15.80479037  2254
STARLINK-34664          
1 64806U 25150S   25209.25002315 -.01123219  00000+0 -65686-2 0  9996
2 64806  69.9938   6.1412 0003940 272.0612 135.9347 15.80516189  2255
STARLINK-34663          
1 64807U 25150T   25209.25002315 -.01130247  00000+0 -66195-2 0  9992
2 64807  69.9938   6.1383 0003889 271.2537 139.1186 15.80500148  2257
STARLINK-34696          
1 64808U 25150U   25209.16668981 -.01205461  00000+0 -70371-2 0  9992
2 64808  69.9944   6.3708 0003903 269.4685  31.3623 15.80735267  2237
STARLINK-34675          
1 64809U 25150V   25208.91668981 -.01189819  00000+0 -67297-2 0  9996
2 64809  69.9941   7.0834 0004000 275.0650  45.4884 15.81379771  3092
STARLINK-34608          
1 64810U 25150W   25208.91668981 -.01197800  00000+0 -67829-2 0  9998
2 64810  69.9940   7.0802 0003775 276.7581  46.1022 15.81374995  3092
STARLINK-34669          
1 64811U 25150X   25208.91668981 -.01202856  00000+0 -68198-2 0  9997
2 64811  69.9940   7.0779 0003959 275.4884  49.8137 15.81357288  3095
STARLINK-34644          
1 64812U 25150Y   25208.91668981 -.01206583  00000+0 -68389-2 0  9991
2 64812  69.9942   7.0758 0004065 273.9277  53.3233 15.81370193  2820
STARLINK-34685          
1 64813U 25150Z   25208.91668981 -.01213935  00000+0 -68892-2 0  9990
2 64813  69.9942   7.0732 0003979 275.5135  54.1033 15.81360696  3091
STARLINK-34668          
1 64814U 25150AA  25208.91668981 -.01226489  00000+0 -69759-2 0  9992
2 64814  69.9941   7.0674 0003980 276.9922  57.3115 15.81340634  2193
STARLINK-34667          
1 64815U 25150AB  25208.91668981 -.01219570  00000+0 -69265-2 0  9998
2 64815  69.9939   7.0700 0003991 276.5460  55.3088 15.81356371  2198
KUIPER-00069            
1 64816U 25151A   25209.17596104 -.00003078  00000+0 -76480-4 0  9998
2 64816  51.8779 230.1793 0005461 176.8395 183.2627 15.35645545  3009
KUIPER-00070            
1 64817U 25151B   25208.85573030  .00018804  00000+0  55399-3 0  9992
2 64817  51.8778 231.7803 0005317 198.1949 161.8847 15.35057284  2956
KUIPER-00071            
1 64818U 25151C   25209.17692244  .00010826  00000+0  31855-3 0  9995
2 64818  51.8782 230.1881 0005276 179.8852 180.2136 15.35590948  1813
KUIPER-00072            
1 64819U 25151D   25209.16668981 -.00000321  00000+0  18179-5 0  9992
2 64819  51.8776 230.2598 0004814 191.5031  98.2093 15.35213173  1812
KUIPER-00073            
1 64820U 25151E   25208.85317725  .00022308  00000+0  64803-3 0  9997
2 64820  51.8786 231.7689 0005298 187.0044 173.0869 15.35386941  2956
KUIPER-00074            
1 64821U 25151F   25209.17824669  .00011791  00000+0  34783-3 0  9992
2 64821  51.8774 230.1906 0005225 188.7112 171.3784 15.35418375  1822
KUIPER-00075            
1 64822U 25151G   25209.17756330 -.00075217  00000+0 -21658-2 0  9993
2 64822  51.8788 230.1931 0004644 177.8990 182.2016 15.35371935  1822
KUIPER-00076            
1 64823U 25151H   25209.17887409  .00011655  00000+0  34539-3 0  9993
2 64823  51.8774 230.1953 0004955 188.6035 171.4866 15.35288512  1828
KUIPER-00077            
1 64824U 25151J   25208.85478902  .00023901  00000+0  69908-3 0  9997
2 64824  51.8788 231.7788 0005608 194.8565 165.2257 15.35127896  1776
KUIPER-00078            
1 64825U 25151K   25209.18004525  .00010315  00000+0  30822-3 0  9999
2 64825  51.8781 230.2058 0005678 198.3257 161.7525 15.35160879  1821
KUIPER-00079            
1 64826U 25151L   25208.84994156  .00012044  00000+0  35079-3 0  9990
2 64826  51.8780 231.7449 0005984 172.5261 187.5815 15.35796213  2972
KUIPER-00080            
1 64827U 25151M   25209.17751327  .00017985  00000+0  52259-3 0  9997
2 64827  51.8783 230.1926 0004953 183.3551 176.7402 15.35525175  1828
KUIPER-00082            
1 64828U 25151N   25209.17667106  .00016469  00000+0  47795-3 0  9994
2 64828  51.8777 230.1824 0005379 179.1692 180.9304 15.35628824  1824
KUIPER-00083            
1 64829U 25151P   25209.17931827  .00010456  00000+0  31179-3 0  9998
2 64829  51.8778 230.1977 0006041 183.1040 176.9909 15.35207205  3019
KUIPER-00084            
1 64830U 25151Q   25208.85533528  .00026285  00000+0  76809-3 0  9996
2 64830  51.8785 231.7804 0005771 200.6350 159.4403 15.35101589  1777
KUIPER-00085            
1 64831U 25151R   25208.58987702  .00011314  00000+0  33062-3 0  9995
2 64831  51.8779 233.0019 0005829 172.0903 188.0176 15.35758443  1732
KUIPER-00086            
1 64832U 25151S   25209.18045023  .00010335  00000+0  30979-3 0  9990
2 64832  51.8778 230.2071 0005448 198.7423 161.3363 15.35057943  1816
KUIPER-00087            
1 64833U 25151T   25209.17701858  .00009791  00000+0  29012-3 0  9995
2 64833  51.8782 230.1888 0005321 175.6350 184.4683 15.35488262  1824
KUIPER-00089            
1 64834U 25151U   25209.16668981 -.00002093  00000+0 -49136-4 0  9994
2 64834  51.8790 230.2651 0005655 194.2134  96.0511 15.35265455  1814
KUIPER-00090            
1 64835U 25151V   25208.85559393  .00020676  00000+0  60850-3 0  9996
2 64835  51.8785 231.7823 0005850 203.0755 156.9969 15.35021918  1773
KUIPER-00091            
1 64836U 25151W   25209.17591834  .00019322  00000+0  55729-3 0  9994
2 64836  51.8777 230.1770 0005863 175.2079 184.8964 15.35703501  1828
KUIPER-00092            
1 64837U 25151X   25209.17753888  .00098030  00000+0  27660-2 0  9999
2 64837  51.8776 230.1868 0005494 184.2320 175.8620 15.35571919  3035
KUIPER-00093            
1 64838U 25151Y   25208.85376429  .00019886  00000+0  58129-3 0  9993
2 64838  51.8786 231.7720 0005283 187.6699 172.4207 15.35265479  1777
KUIPER-00094            
1 64839U 25151Z   25209.17723397  .00010130  00000+0  29925-3 0  9995
2 64839  51.8777 230.1853 0005227 181.8840 178.2127 15.35546278  2056
2025-135BT              
1 64840U 25135BT  25208.85961921  .00001964  00000+0  19695-3 0  9998
2 64840  97.7480 322.7110 0005231 352.4098   7.7041 14.92468591  5505
2025-135BU              
1 64841U 25135BU  25208.86559069  .00007798  00000+0  76048-3 0  9992
2 64841  97.7507 322.7058 0007761 215.7310 144.3391 14.92699020  5504
STARLINK-34723          
1 64842U 25152A   25208.91668981 -.00776061  00000+0 -33675-2 0  9998
2 64842  97.5940  60.9208 0001185  93.8099 203.8676 15.86565980  2083
STARLINK-34725          
1 64843U 25152B   25208.91668981 -.00781223  00000+0 -33878-2 0  9990
2 64843  97.5939  60.9219 0001268  82.9753 216.9699 15.86589810  1966
STARLINK-34709          
1 64844U 25152C   25209.16668981 -.00887896  00000+0 -39649-2 0  9994
2 64844  97.5937  61.2009 0001269  97.7519 191.2621 15.86236514  1433
STARLINK-34706          
1 64845U 25152D   25208.91668981 -.00794652  00000+0 -34431-2 0  9998
2 64845  97.5938  60.9241 0001210  86.0412 218.7101 15.86638576  1979
STARLINK-34736          
1 64846U 25152E   25208.91668981 -.00804613  00000+0 -34860-2 0  9994
2 64846  97.5935  60.9252 0001295  96.4595 210.7827 15.86662248  1979
